{
"type": "FeatureCollection",
"name": "GemActiveFaults",
"crs": { "type": "name", "properties": { "name": "urn:ogc:def:crs:OGC:1.3:CRS84" } },
"features": [
{"type":"Feature","properties":{"fid":1,"accuracy":null,"activity_confidence":null,"average_dip":"(80.0,80.0,80.0)","average_rake":"(180,180.0,180.0)","catalog_id":"ME_TRCS360","catalog_name":"EMME","dip_dir":null,"downthrown_side_dir":null,"downthrown_side_id":null,"epistemic_quality":"1","exposure_quality":null,"fs_name":null,"last_movement":null,"lower_seis_depth":"(13.0,,)","name":null,"net_slip_rate":"(1.0,0.0001,2.0)","notes":null,"reference":null,"shortening_rate":null,"slip_type":"Dextral","strike_slip_rate":null,"upper_seis_depth":"(1.0,,)","vert_sep_rate":null},"geometry":{"type":"MultiLineString","coordinates":[[[26.890930013082325,38.055964822284359,0.0],[26.894437,38.066498,0.0],[26.904198,38.095811,0.0],[26.9228,38.12235,0.0],[26.941401,38.148889,0.0],[26.960003,38.175428,0.0],[26.982659927370889,38.195135924910709,0.0]],[[26.982659927370889,38.195135924910709,0.0],[26.985856,38.197916,0.0],[27.011709,38.220405,0.0],[27.037562,38.242893,0.0],[27.056079,38.269484,0.0],[27.074595,38.296075,0.0],[27.093112,38.322666,0.0],[27.098403295271087,38.342892150318313,0.0]],[[27.098403295271261,38.342892150318967,0.0],[27.102911,38.360123,0.0],[27.11271,38.39758,0.0]]]}},
{"type":"Feature","properties":{"fid":2,"accuracy":null,"activity_confidence":null,"average_dip":"(50.0,50,50)","average_rake":"(-90,-90,-90)","catalog_id":"EUR_TRCS354","catalog_name":"SHARE","dip_dir":null,"downthrown_side_dir":null,"downthrown_side_id":null,"epistemic_quality":null,"exposure_quality":null,"fs_name":null,"last_movement":null,"lower_seis_depth":"(6.0,,)","name":null,"net_slip_rate":"(0.7,0.0001,1.3054)","notes":null,"reference":null,"shortening_rate":null,"slip_type":"Normal","strike_slip_rate":null,"upper_seis_depth":"(0.0,,)","vert_sep_rate":null},"geometry":{"type":"MultiLineString","coordinates":[[[27.28937,38.43223,0.0],[27.162711,38.425037,0.0],[27.120749098081266,38.413240534076905,0.0]],[[27.077079981114853,38.400964130324191,0.0],[27.04117,38.390869,0.0],[26.944909106053913,38.386837407676559,0.0]]]}},
{"type":"Feature","properties":{"fid":3,"accuracy":null,"activity_confidence":null,"average_dip":"(80.0,80,80)","average_rake":"(180,180,180)","catalog_id":"EUR_TRCS360","catalog_name":"SHARE","dip_dir":null,"downthrown_side_dir":null,"downthrown_side_id":null,"epistemic_quality":null,"exposure_quality":null,"fs_name":null,"last_movement":null,"lower_seis_depth":"(13.0,,)","name":null,"net_slip_rate":"(1.0,0.0001,2.0)","notes":null,"reference":null,"shortening_rate":null,"slip_type":"Dextral","strike_slip_rate":null,"upper_seis_depth":"(0.0,,)","vert_sep_rate":null},"geometry":{"type":"MultiLineString","coordinates":[[[27.11271,38.39758,0.0],[27.098403295271265,38.342892150318981,0.0]],[[27.09840329527109,38.34289215031832,0.0],[27.093112,38.322666,0.0],[27.037562,38.242893,0.0],[26.982659776428278,38.195136085737744,0.0]],[[26.982659776428278,38.195136085737744,0.0],[26.960003,38.175428,0.0],[26.904198,38.095811,0.0],[26.890930160940087,38.055964890891033,0.0]]]}},
{"type":"Feature","properties":{"fid":4,"accuracy":null,"activity_confidence":null,"average_dip":"(50.0,50.0,50.0)","average_rake":"(-69,-82.0,-57.0)","catalog_id":"ME_TRCS322","catalog_name":"EMME","dip_dir":null,"downthrown_side_dir":null,"downthrown_side_id":null,"epistemic_quality":"1","exposure_quality":null,"fs_name":null,"last_movement":null,"lower_seis_depth":"(13.0,,)","name":null,"net_slip_rate":"(5.7,5.4658,5.9588)","notes":null,"reference":null,"shortening_rate":null,"slip_type":"Normal","strike_slip_rate":null,"upper_seis_depth":"(1.0,,)","vert_sep_rate":null},"geometry":{"type":"MultiLineString","coordinates":[[[27.464794,38.370822,0.0],[27.57414,38.39851,0.0],[27.679165,38.435143,0.0],[27.699037399375811,38.444940883590789,0.0]]]}},
{"type":"Feature","properties":{"fid":5,"accuracy":null,"activity_confidence":null,"average_dip":"(50.0,50.0,50.0)","average_rake":"(-90,-90.0,-90.0)","catalog_id":"ME_TRCS324","catalog_name":"EMME","dip_dir":null,"downthrown_side_dir":null,"downthrown_side_id":null,"epistemic_quality":"1","exposure_quality":null,"fs_name":null,"last_movement":null,"lower_seis_depth":"(12.0,,)","name":null,"net_slip_rate":"(1.3,0.0001,2.6108)","notes":null,"reference":null,"shortening_rate":null,"slip_type":"Normal","strike_slip_rate":null,"upper_seis_depth":"(1.0,,)","vert_sep_rate":null},"geometry":{"type":"MultiLineString","coordinates":[[[27.54596,38.02329,0.0],[27.604282,38.035441,0.0],[27.662604,38.047592,0.0],[27.720944,38.059747,0.0],[27.779284,38.071901,0.0],[27.837643,38.084059,0.0],[27.896001,38.096218,0.0],[27.955844,38.102555,0.0],[28.015687,38.108891,0.0],[28.074728,38.098937,0.0],[28.133769,38.088982,0.0],[28.19115,38.077976,0.0],[28.24853,38.06697,0.0]]]}},
{"type":"Feature","properties":{"fid":6,"accuracy":null,"activity_confidence":null,"average_dip":"(50.0,50,50)","average_rake":"(-69,-82,-57)","catalog_id":"EUR_TRCS322","catalog_name":"SHARE","dip_dir":null,"downthrown_side_dir":null,"downthrown_side_id":null,"epistemic_quality":null,"exposure_quality":null,"fs_name":null,"last_movement":null,"lower_seis_depth":"(13.0,,)","name":null,"net_slip_rate":"(5.7,5.4658,5.9588)","notes":null,"reference":null,"shortening_rate":null,"slip_type":"Normal","strike_slip_rate":null,"upper_seis_depth":"(0.0,,)","vert_sep_rate":null},"geometry":{"type":"MultiLineString","coordinates":[[[27.699037399375811,38.444940883590789,0.0],[27.679165,38.435143,0.0],[27.57414,38.39851,0.0],[27.464794,38.370822,0.0]]]}},
{"type":"Feature","properties":{"fid":7,"accuracy":null,"activity_confidence":null,"average_dip":"(50.0,50,50)","average_rake":"(-90,-90,-90)","catalog_id":"EUR_TRCS324","catalog_name":"SHARE","dip_dir":null,"downthrown_side_dir":null,"downthrown_side_id":null,"epistemic_quality":null,"exposure_quality":null,"fs_name":null,"last_movement":null,"lower_seis_depth":"(12.0,,)","name":null,"net_slip_rate":"(1.3,0.0001,2.6108)","notes":null,"reference":null,"shortening_rate":null,"slip_type":"Normal","strike_slip_rate":null,"upper_seis_depth":"(0.0,,)","vert_sep_rate":null},"geometry":{"type":"MultiLineString","coordinates":[[[28.24853,38.06697,0.0],[28.133769,38.088982,0.0],[28.015687,38.108891,0.0],[27.896001,38.096218,0.0],[27.779284,38.071901,0.0],[27.662604,38.047592,0.0],[27.54596,38.02329,0.0]]]}},
{"type":"Feature","properties":{"fid":8,"accuracy":null,"activity_confidence":null,"average_dip":"(50.0,50.0,50.0)","average_rake":"(-90,-90.0,-90.0)","catalog_id":"ME_TRCS323","catalog_name":"EMME","dip_dir":null,"downthrown_side_dir":null,"downthrown_side_id":null,"epistemic_quality":"1","exposure_quality":null,"fs_name":null,"last_movement":null,"lower_seis_depth":"(10.0,,)","name":null,"net_slip_rate":"(1.3,0.0001,2.6108)","notes":null,"reference":null,"shortening_rate":null,"slip_type":"Normal","strike_slip_rate":null,"upper_seis_depth":"(1.0,,)","vert_sep_rate":null},"geometry":{"type":"MultiLineString","coordinates":[[[27.80078,38.20894,0.0],[27.746779,38.204693,0.0],[27.692778,38.200446,0.0],[27.638783,38.1962,0.0],[27.584788,38.191953,0.0],[27.530794,38.187707,0.0],[27.4768,38.18346,0.0]]]}},
{"type":"Feature","properties":{"fid":9,"accuracy":null,"activity_confidence":null,"average_dip":"(50.0,50,50)","average_rake":"(-90,-90,-90)","catalog_id":"EUR_TRCS323","catalog_name":"SHARE","dip_dir":null,"downthrown_side_dir":null,"downthrown_side_id":null,"epistemic_quality":null,"exposure_quality":null,"fs_name":null,"last_movement":null,"lower_seis_depth":"(10.0,,)","name":null,"net_slip_rate":"(1.3,0.0001,2.6108)","notes":null,"reference":null,"shortening_rate":null,"slip_type":"Normal","strike_slip_rate":null,"upper_seis_depth":"(0.0,,)","vert_sep_rate":null},"geometry":{"type":"MultiLineString","coordinates":[[[27.4768,38.18346,0.0],[27.584788,38.191953,0.0],[27.692778,38.200446,0.0],[27.80078,38.20894,0.0]]]}},
{"type":"Feature","properties":{"fid":10,"accuracy":null,"activity_confidence":null,"average_dip":"(85.0,85.0,85.0)","average_rake":"(-125,-129.0,-121.0)","catalog_id":"ME_TRCS364","catalog_name":"EMME","dip_dir":null,"downthrown_side_dir":null,"downthrown_side_id":null,"epistemic_quality":"1","exposure_quality":null,"fs_name":null,"last_movement":null,"lower_seis_depth":"(13.0,,)","name":null,"net_slip_rate":"(0.3,0.0001,0.5847)","notes":null,"reference":null,"shortening_rate":null,"slip_type":"Dextral-Normal","strike_slip_rate":null,"upper_seis_depth":"(1.0,,)","vert_sep_rate":null},"geometry":{"type":"MultiLineString","coordinates":[[[27.1896,38.28223,0.0],[27.238991,38.289856,0.0],[27.288383,38.297481,0.0],[27.335067,38.31229,0.0],[27.381751,38.327099,0.0],[27.416391,38.350266,0.0],[27.45103,38.373432,0.0]]]}},
{"type":"Feature","properties":{"fid":11,"accuracy":null,"activity_confidence":null,"average_dip":"(85.0,85,85)","average_rake":"(-125,-129,-121)","catalog_id":"EUR_TRCS364","catalog_name":"SHARE","dip_dir":null,"downthrown_side_dir":null,"downthrown_side_id":null,"epistemic_quality":null,"exposure_quality":null,"fs_name":null,"last_movement":null,"lower_seis_depth":"(13.0,,)","name":null,"net_slip_rate":"(0.3,0.0001,0.5847)","notes":null,"reference":null,"shortening_rate":null,"slip_type":"Dextral-Normal","strike_slip_rate":null,"upper_seis_depth":"(0.0,,)","vert_sep_rate":null},"geometry":{"type":"MultiLineString","coordinates":[[[27.45103,38.373432,0.0],[27.381751,38.327099,0.0],[27.288383,38.297481,0.0],[27.1896,38.28223,0.0]]]}},
{"type":"Feature","properties":{"fid":12,"accuracy":null,"activity_confidence":null,"average_dip":"(60.0,60,60)","average_rake":"(-90,-90,-90)","catalog_id":"EUR_TRCS355","catalog_name":"SHARE","dip_dir":null,"downthrown_side_dir":null,"downthrown_side_id":null,"epistemic_quality":null,"exposure_quality":null,"fs_name":null,"last_movement":null,"lower_seis_depth":"(13.0,,)","name":null,"net_slip_rate":"(0.6,0.0001,1.1547)","notes":null,"reference":null,"shortening_rate":null,"slip_type":"Normal","strike_slip_rate":null,"upper_seis_depth":"(0.0,,)","vert_sep_rate":null},"geometry":{"type":"MultiLineString","coordinates":[[[27.14708,38.36756,0.0],[27.23514,38.36407,0.0]]]}},
{"type":"Feature","properties":{"fid":13,"accuracy":null,"activity_confidence":null,"average_dip":"(50.0,50.0,50.0)","average_rake":"(-90,-90.0,-90.0)","catalog_id":"ME_TRCS353","catalog_name":"EMME","dip_dir":null,"downthrown_side_dir":null,"downthrown_side_id":null,"epistemic_quality":"1","exposure_quality":null,"fs_name":null,"last_movement":null,"lower_seis_depth":"(13.0,,)","name":null,"net_slip_rate":"(0.7,0.0001,1.3054)","notes":null,"reference":null,"shortening_rate":null,"slip_type":"Normal","strike_slip_rate":null,"upper_seis_depth":"(1.0,,)","vert_sep_rate":null},"geometry":{"type":"MultiLineString","coordinates":[[[26.92431,38.08435,0.0],[26.966454,38.078136,0.0],[26.974560418482529,38.076940513421711,0.0]],[[26.974560418482532,38.076940513421711,0.0],[27.008597,38.071921,0.0],[27.050741,38.065707,0.0],[27.079597,38.040828,0.0],[27.108454,38.015949,0.0],[27.13731,37.99107,0.0]]]}},
{"type":"Feature","properties":{"fid":14,"accuracy":null,"activity_confidence":null,"average_dip":"(85.0,85.0,85.0)","average_rake":"(180,180.0,180.0)","catalog_id":"ME_TRCS359","catalog_name":"EMME","dip_dir":null,"downthrown_side_dir":null,"downthrown_side_id":null,"epistemic_quality":"1","exposure_quality":null,"fs_name":null,"last_movement":null,"lower_seis_depth":"(13.0,,)","name":null,"net_slip_rate":"(1.0,0.0001,2.0)","notes":null,"reference":null,"shortening_rate":null,"slip_type":"Dextral","strike_slip_rate":null,"upper_seis_depth":"(1.0,,)","vert_sep_rate":null},"geometry":{"type":"MultiLineString","coordinates":[[[27.190665724428779,37.990280838648964,0.0],[27.194506,38.013257,0.0],[27.200488,38.049041,0.0],[27.206469,38.084825,0.0],[27.223259,38.116673,0.0],[27.24005,38.148522,0.0],[27.25684,38.18037,0.0]]]}},
{"type":"Feature","properties":{"fid":15,"accuracy":null,"activity_confidence":null,"average_dip":"(50.0,50,50)","average_rake":"(-90,-90,-90)","catalog_id":"EUR_TRCS352","catalog_name":"SHARE","dip_dir":null,"downthrown_side_dir":null,"downthrown_side_id":null,"epistemic_quality":null,"exposure_quality":null,"fs_name":null,"last_movement":null,"lower_seis_depth":"(13.0,,)","name":null,"net_slip_rate":"(1.3,0.0001,2.6108)","notes":null,"reference":null,"shortening_rate":null,"slip_type":"Normal","strike_slip_rate":null,"upper_seis_depth":"(0.0,,)","vert_sep_rate":null},"geometry":{"type":"MultiLineString","coordinates":[[[27.192163,37.996194,0.0],[27.31041,37.98958,0.0]]]}},
{"type":"Feature","properties":{"fid":16,"accuracy":null,"activity_confidence":null,"average_dip":"(50.0,50,50)","average_rake":"(-90,-90,-90)","catalog_id":"EUR_TRCS353","catalog_name":"SHARE","dip_dir":null,"downthrown_side_dir":null,"downthrown_side_id":null,"epistemic_quality":null,"exposure_quality":null,"fs_name":null,"last_movement":null,"lower_seis_depth":"(13.0,,)","name":null,"net_slip_rate":"(0.7,0.0001,1.3054)","notes":null,"reference":null,"shortening_rate":null,"slip_type":"Normal","strike_slip_rate":null,"upper_seis_depth":"(0.0,,)","vert_sep_rate":null},"geometry":{"type":"MultiLineString","coordinates":[[[27.13731,37.99107,0.0],[27.050741,38.065707,0.0],[26.974560130185253,38.076940320593501,0.0]],[[26.974560130185253,38.076940320593501,0.0],[26.92431,38.08435,0.0]]]}},
{"type":"Feature","properties":{"fid":17,"accuracy":null,"activity_confidence":null,"average_dip":"(50.0,50,50)","average_rake":"(-90,-90,-90)","catalog_id":"EUR_TRCS358","catalog_name":"SHARE","dip_dir":null,"downthrown_side_dir":null,"downthrown_side_id":null,"epistemic_quality":null,"exposure_quality":null,"fs_name":null,"last_movement":null,"lower_seis_depth":"(13.0,,)","name":null,"net_slip_rate":"(1.3,0.0001,2.6108)","notes":null,"reference":null,"shortening_rate":null,"slip_type":"Normal","strike_slip_rate":null,"upper_seis_depth":"(0.0,,)","vert_sep_rate":null},"geometry":{"type":"MultiLineString","coordinates":[[[27.19653,38.07639,0.0],[27.101324,38.137328,0.0]]]}},
{"type":"Feature","properties":{"fid":18,"accuracy":null,"activity_confidence":null,"average_dip":"(85.0,85,85)","average_rake":"(180,180,180)","catalog_id":"EUR_TRCS359","catalog_name":"SHARE","dip_dir":null,"downthrown_side_dir":null,"downthrown_side_id":null,"epistemic_quality":null,"exposure_quality":null,"fs_name":null,"last_movement":null,"lower_seis_depth":"(13.0,,)","name":null,"net_slip_rate":"(1.0,0.0001,2.0)","notes":null,"reference":null,"shortening_rate":null,"slip_type":"Dextral","strike_slip_rate":null,"upper_seis_depth":"(0.0,,)","vert_sep_rate":null},"geometry":{"type":"MultiLineString","coordinates":[[[27.25684,38.18037,0.0],[27.206469,38.084825,0.0],[27.190665842803988,37.990280833074792,0.0]]]}},
{"type":"Feature","properties":{"fid":19,"accuracy":null,"activity_confidence":null,"average_dip":"(85.0,80,90)","average_rake":"(180,180,180)","catalog_id":"EUR_TRCS366","catalog_name":"SHARE","dip_dir":null,"downthrown_side_dir":null,"downthrown_side_id":null,"epistemic_quality":null,"exposure_quality":null,"fs_name":null,"last_movement":null,"lower_seis_depth":"(13.0,,)","name":null,"net_slip_rate":"(1.0,0.0001,2.0)","notes":null,"reference":null,"shortening_rate":null,"slip_type":"Dextral","strike_slip_rate":null,"upper_seis_depth":"(0.0,,)","vert_sep_rate":null},"geometry":{"type":"MultiLineString","coordinates":[[[27.0169,38.22989,0.0],[26.975483391744582,38.225841397667061,0.0]],[[26.975483391744582,38.225841397667061,0.0],[26.924105,38.220819,0.0],[26.830576,38.221073,0.0]]]}},
{"type":"Feature","properties":{"fid":20,"accuracy":null,"activity_confidence":null,"average_dip":"(85.0,85,85)","average_rake":"(180,180,180)","catalog_id":"EUR_TRCS367","catalog_name":"SHARE","dip_dir":null,"downthrown_side_dir":null,"downthrown_side_id":null,"epistemic_quality":null,"exposure_quality":null,"fs_name":null,"last_movement":null,"lower_seis_depth":"(13.0,,)","name":null,"net_slip_rate":"(1.0,0.0001,2.0)","notes":null,"reference":null,"shortening_rate":null,"slip_type":"Dextral","strike_slip_rate":null,"upper_seis_depth":"(0.0,,)","vert_sep_rate":null},"geometry":{"type":"MultiLineString","coordinates":[[[27.14583,38.20556,0.0],[27.096751,38.143678,0.0],[27.02757,38.07321,0.0]]]}},
{"type":"Feature","properties":{"fid":21,"accuracy":null,"activity_confidence":null,"average_dip":"(80.0,80.0,80.0)","average_rake":"(180,180.0,180.0)","catalog_id":"ME_TRCS361","catalog_name":"EMME","dip_dir":null,"downthrown_side_dir":null,"downthrown_side_id":null,"epistemic_quality":"1","exposure_quality":null,"fs_name":null,"last_movement":null,"lower_seis_depth":"(13.0,,)","name":null,"net_slip_rate":"(1.0,0.0001,2.0)","notes":null,"reference":null,"shortening_rate":null,"slip_type":"Dextral","strike_slip_rate":null,"upper_seis_depth":"(1.0,,)","vert_sep_rate":null},"geometry":{"type":"MultiLineString","coordinates":[[[26.806257662074177,38.168900853098066,0.0],[26.807009,38.170629,0.0],[26.821029,38.202873,0.0],[26.835051,38.235122,0.0],[26.846922528161613,38.262426260762837,0.0]],[[26.84692252816162,38.262426260762851,0.0],[26.849072,38.26737,0.0],[26.863094,38.299619,0.0],[26.887992,38.324494,0.0],[26.91289,38.349369,0.0],[26.937788,38.374244,0.0]]]}},
{"type":"Feature","properties":{"fid":22,"accuracy":null,"activity_confidence":null,"average_dip":"(85.0,85.0,85.0)","average_rake":"(180,180.0,180.0)","catalog_id":"ME_TRCS368","catalog_name":"EMME","dip_dir":null,"downthrown_side_dir":null,"downthrown_side_id":null,"epistemic_quality":"1","exposure_quality":null,"fs_name":null,"last_movement":null,"lower_seis_depth":"(13.0,,)","name":null,"net_slip_rate":"(1.0,0.0001,2.0)","notes":null,"reference":null,"shortening_rate":null,"slip_type":"Dextral","strike_slip_rate":null,"upper_seis_depth":"(1.0,,)","vert_sep_rate":null},"geometry":{"type":"MultiLineString","coordinates":[[[26.638095,38.352354,0.0],[26.631021,38.320127,0.0],[26.623946,38.287901,0.0],[26.625915,38.255237,0.0],[26.627884,38.222573,0.0],[26.629832996689828,38.190240837543662,0.0]],[[26.629843737344356,38.190062659412888,0.0],[26.629853,38.189909,0.0],[26.629661381938107,38.18849602469345,0.0]],[[26.629511622442568,38.187391710898453,0.0],[26.629501677585182,38.187318378365092,0.0]],[[26.62932935925031,38.186047717605689,0.0],[26.625475,38.157626,0.0],[26.623637655705348,38.144074483924072,0.0]],[[26.623580468742972,38.143652695780062,0.0],[26.622810980284527,38.137977256916926,0.0]]]}},
{"type":"Feature","properties":{"fid":23,"accuracy":null,"activity_confidence":null,"average_dip":"(60.0,60.0,60.0)","average_rake":"(-126,-126.0,-126.0)","catalog_id":"ME_TRCS388","catalog_name":"EMME","dip_dir":null,"downthrown_side_dir":null,"downthrown_side_id":null,"epistemic_quality":"1","exposure_quality":null,"fs_name":null,"last_movement":null,"lower_seis_depth":"(13.0,,)","name":null,"net_slip_rate":"(1.3,0.0001,2.5166)","notes":null,"reference":null,"shortening_rate":null,"slip_type":"Dextral-Normal","strike_slip_rate":null,"upper_seis_depth":"(1.0,,)","vert_sep_rate":null},"geometry":{"type":"MultiLineString","coordinates":[[[26.639406633650392,38.465818391737074,0.0],[26.637168,38.480456,0.0],[26.636787121410443,38.482945915730333,0.0]],[[26.636561050844676,38.484423805728092,0.0],[26.636207464719359,38.486735302566181,0.0]],[[26.636051727691548,38.487753401472169,0.0],[26.636017137208249,38.487979529668536,0.0]],[[26.635795096928206,38.489431072499258,0.0],[26.6355926024277,38.490754838801529,0.0]],[[26.632714408979446,38.509570438675759,0.0],[26.632288,38.512358,0.0],[26.63175445732924,38.51584664076298,0.0]]]}},
{"type":"Feature","properties":{"fid":24,"accuracy":null,"activity_confidence":null,"average_dip":"(57.5,45.0,70.0)","average_rake":"(-90,-100.0,-80.0)","catalog_id":"ME_TRCS907","catalog_name":"EMME","dip_dir":null,"downthrown_side_dir":null,"downthrown_side_id":null,"epistemic_quality":"1","exposure_quality":null,"fs_name":null,"last_movement":null,"lower_seis_depth":"(13.5,,)","name":null,"net_slip_rate":"(0.8,0.5,1.0)","notes":null,"reference":null,"shortening_rate":null,"slip_type":"Normal","strike_slip_rate":null,"upper_seis_depth":"(1.0,,)","vert_sep_rate":null},"geometry":{"type":"MultiLineString","coordinates":[[[26.391035830789761,38.506332334735667,0.0],[26.394281006560043,38.504274841001489,0.0]],[[26.403871238317816,38.498194479521047,0.0],[26.404753887475902,38.497634865730987,0.0]],[[26.411795411259099,38.493147795524621,0.0],[26.431128,38.480818,0.0],[26.437394579302183,38.477193452654284,0.0]],[[26.447396827290323,38.471408219651018,0.0],[26.448879423232999,38.470550696123482,0.0]],[[26.46023845331683,38.463980709476076,0.0],[26.460884693327909,38.463606928597564,0.0]],[[26.461182791323161,38.463434510720866,0.0],[26.461239,38.463402,0.0],[26.461469904913471,38.463284187207833,0.0]],[[26.46879869258667,38.459544877697134,0.0],[26.47103468808762,38.458404023354589,0.0]],[[26.502194053346773,38.441214838667797,0.0],[26.515915,38.432301,0.0]]]}},
{"type":"Feature","properties":{"fid":25,"accuracy":null,"activity_confidence":null,"average_dip":"(80.0,80,80)","average_rake":"(180,180,180)","catalog_id":"EUR_TRCS361","catalog_name":"SHARE","dip_dir":null,"downthrown_side_dir":null,"downthrown_side_id":null,"epistemic_quality":null,"exposure_quality":null,"fs_name":null,"last_movement":null,"lower_seis_depth":"(13.0,,)","name":null,"net_slip_rate":"(1.0,0.0001,2.0)","notes":null,"reference":null,"shortening_rate":null,"slip_type":"Dextral","strike_slip_rate":null,"upper_seis_depth":"(0.0,,)","vert_sep_rate":null},"geometry":{"type":"MultiLineString","coordinates":[[[26.937788,38.374244,0.0],[26.863094,38.299619,0.0],[26.846922626831983,38.262426187245623,0.0]],[[26.846922626831979,38.262426187245609,0.0],[26.821029,38.202873,0.0],[26.806257948045854,38.168900528741048,0.0]]]}},
{"type":"Feature","properties":{"fid":26,"accuracy":null,"activity_confidence":null,"average_dip":"(85.0,85,85)","average_rake":"(180,180,180)","catalog_id":"EUR_TRCS368","catalog_name":"SHARE","dip_dir":null,"downthrown_side_dir":null,"downthrown_side_id":null,"epistemic_quality":null,"exposure_quality":null,"fs_name":null,"last_movement":null,"lower_seis_depth":"(13.0,,)","name":null,"net_slip_rate":"(1.0,0.0001,2.0)","notes":null,"reference":null,"shortening_rate":null,"slip_type":"Dextral","strike_slip_rate":null,"upper_seis_depth":"(0.0,,)","vert_sep_rate":null},"geometry":{"type":"MultiLineString","coordinates":[[[26.622810908935492,38.137977264866613,0.0],[26.623580507249244,38.143652649553196,0.0]],[[26.62363770943665,38.144074485740518,0.0],[26.629329394245108,38.18604768166027,0.0]],[[26.629501706827359,38.187318396750371,0.0],[26.629511646885511,38.187391699475725,0.0]],[[26.629661399111995,38.188496043752188,0.0],[26.629853,38.189909,0.0],[26.629843737344356,38.190062659412888,0.0]],[[26.629832996689828,38.190240837543662,0.0],[26.623946,38.287901,0.0],[26.642949166187723,38.374463716917781,0.0]]]}},
{"type":"Feature","properties":{"fid":27,"accuracy":null,"activity_confidence":null,"average_dip":"(60.0,60,60)","average_rake":"(-126,-126,-126)","catalog_id":"EUR_TRCS388","catalog_name":"SHARE","dip_dir":null,"downthrown_side_dir":null,"downthrown_side_id":null,"epistemic_quality":null,"exposure_quality":null,"fs_name":null,"last_movement":null,"lower_seis_depth":"(13.0,,)","name":null,"net_slip_rate":"(1.3,0.0001,2.5166)","notes":null,"reference":null,"shortening_rate":null,"slip_type":"Dextral-Normal","strike_slip_rate":null,"upper_seis_depth":"(0.0,,)","vert_sep_rate":null},"geometry":{"type":"MultiLineString","coordinates":[[[26.631754750752783,38.515846663373019,0.0],[26.63271467054339,38.509570527051132,0.0]],[[26.635592435496115,38.490755157973013,0.0],[26.635794970185753,38.489430948039519,0.0]],[[26.636016926724306,38.487979754401124,0.0],[26.636051551856571,38.487753368767251,0.0]],[[26.636207010230439,38.486736952649665,0.0],[26.636560902324884,38.484423139506411,0.0]],[[26.636786780260632,38.482946307034851,0.0],[26.639406459531699,38.46581835073502,0.0]]]}},
{"type":"Feature","properties":{"fid":28,"accuracy":null,"activity_confidence":null,"average_dip":"(57.5,45,70)","average_rake":"(-90,-100,-80)","catalog_id":"EUR_TRCS907","catalog_name":"SHARE","dip_dir":null,"downthrown_side_dir":null,"downthrown_side_id":null,"epistemic_quality":null,"exposure_quality":null,"fs_name":null,"last_movement":null,"lower_seis_depth":"(13.5,,)","name":null,"net_slip_rate":"(0.8,0.5,1.0)","notes":null,"reference":null,"shortening_rate":null,"slip_type":"Normal","strike_slip_rate":null,"upper_seis_depth":"(0.0,,)","vert_sep_rate":null},"geometry":{"type":"MultiLineString","coordinates":[[[26.515915,38.432301,0.0],[26.502194053346773,38.441214838667797,0.0]],[[26.47103468808762,38.458404023354589,0.0],[26.46879869258667,38.459544877697134,0.0]],[[26.461469904913471,38.463284187207833,0.0],[26.461239,38.463402,0.0],[26.461182791323161,38.463434510720866,0.0]],[[26.460884693327909,38.463606928597564,0.0],[26.46023845331683,38.463980709476076,0.0]],[[26.448879423232999,38.470550696123482,0.0],[26.447396827290323,38.471408219651018,0.0]],[[26.437394579302183,38.477193452654284,0.0],[26.431128,38.480818,0.0],[26.411795411259099,38.493147795524621,0.0]],[[26.404753887475902,38.497634865730987,0.0],[26.403871238317816,38.498194479521047,0.0]],[[26.394281006560043,38.504274841001489,0.0],[26.391035830789761,38.506332334735667,0.0]]]}},
{"type":"Feature","properties":{"fid":29,"accuracy":null,"activity_confidence":null,"average_dip":"(75.0,75.0,75.0)","average_rake":"(-32,-32.0,-32.0)","catalog_id":"ME_TRCS316","catalog_name":"EMME","dip_dir":null,"downthrown_side_dir":null,"downthrown_side_id":null,"epistemic_quality":"1","exposure_quality":null,"fs_name":null,"last_movement":null,"lower_seis_depth":"(13.0,,)","name":null,"net_slip_rate":"(1.0,0.0001,2.0659)","notes":null,"reference":null,"shortening_rate":null,"slip_type":"Sinistral-Normal","strike_slip_rate":null,"upper_seis_depth":"(1.0,,)","vert_sep_rate":null},"geometry":{"type":"MultiLineString","coordinates":[[[27.250395,39.0344,0.0],[27.296999,39.051861,0.0],[27.343622,39.06933,0.0],[27.390245,39.086799,0.0],[27.436887,39.104275,0.0],[27.483529,39.121751,0.0],[27.505524312059737,39.129992289833382,0.0]]]}},
{"type":"Feature","properties":{"fid":30,"accuracy":null,"activity_confidence":null,"average_dip":"(75.0,75.0,75.0)","average_rake":"(-32,-32.0,-32.0)","catalog_id":"ME_TRCS317","catalog_name":"EMME","dip_dir":null,"downthrown_side_dir":null,"downthrown_side_id":null,"epistemic_quality":"1","exposure_quality":null,"fs_name":null,"last_movement":null,"lower_seis_depth":"(13.0,,)","name":null,"net_slip_rate":"(1.0,0.0001,2.0659)","notes":null,"reference":null,"shortening_rate":null,"slip_type":"Sinistral-Normal","strike_slip_rate":null,"upper_seis_depth":"(1.0,,)","vert_sep_rate":null},"geometry":{"type":"MultiLineString","coordinates":[[[27.24377,39.093757,0.0],[27.221727,39.065066,0.0],[27.199684,39.036375,0.0],[27.177641,39.007684,0.0],[27.155605,38.979002,0.0],[27.133569,38.95032,0.0],[27.111533,38.921638,0.0],[27.089504,38.892965,0.0],[27.067475,38.864292,0.0],[27.045446,38.835619,0.0],[27.023423,38.806954,0.0],[27.001399,38.778288,0.0],[26.979376,38.749623,0.0]]]}},
{"type":"Feature","properties":{"fid":31,"accuracy":null,"activity_confidence":null,"average_dip":"(80.0,80.0,80.0)","average_rake":"(-32,-32.0,-32.0)","catalog_id":"ME_TRCS319","catalog_name":"EMME","dip_dir":null,"downthrown_side_dir":null,"downthrown_side_id":null,"epistemic_quality":"1","exposure_quality":null,"fs_name":null,"last_movement":null,"lower_seis_depth":"(10.0,,)","name":null,"net_slip_rate":"(1.0,0.0001,2.0634)","notes":null,"reference":null,"shortening_rate":null,"slip_type":"Sinistral-Normal","strike_slip_rate":null,"upper_seis_depth":"(1.0,,)","vert_sep_rate":null},"geometry":{"type":"MultiLineString","coordinates":[[[26.94664,38.764509,0.0],[26.968362,38.80084,0.0],[26.971367323722049,38.805866304660768,0.0]],[[26.983569698915318,38.826274374133057,0.0],[26.990085,38.837171,0.0],[27.001968393053712,38.857045752003764,0.0]],[[27.0069035133453,38.865299648130971,0.0],[27.007857705994894,38.866895517441087,0.0]],[[27.049442484215728,38.93644767070117,0.0],[27.055268,38.946191,0.0],[27.076998,38.982535,0.0],[27.098733,39.018887,0.0],[27.120467,39.055238,0.0]]]}},
{"type":"Feature","properties":{"fid":32,"accuracy":null,"activity_confidence":null,"average_dip":"(75.0,75,75)","average_rake":"(-32,-32,-32)","catalog_id":"EUR_TRCS316","catalog_name":"SHARE","dip_dir":null,"downthrown_side_dir":null,"downthrown_side_id":null,"epistemic_quality":null,"exposure_quality":null,"fs_name":null,"last_movement":null,"lower_seis_depth":"(13.0,,)","name":null,"net_slip_rate":"(1.0,0.0001,2.0659)","notes":null,"reference":null,"shortening_rate":null,"slip_type":"Sinistral-Normal","strike_slip_rate":null,"upper_seis_depth":"(0.0,,)","vert_sep_rate":null},"geometry":{"type":"MultiLineString","coordinates":[[[27.505524332628646,39.129992150171873,0.0],[27.483529,39.121751,0.0],[27.390245,39.086799,0.0],[27.296999,39.051861,0.0],[27.20379,39.016938,0.0]]]}},
{"type":"Feature","properties":{"fid":33,"accuracy":null,"activity_confidence":null,"average_dip":"(75.0,75,75)","average_rake":"(-32,-32,-32)","catalog_id":"EUR_TRCS317","catalog_name":"SHARE","dip_dir":null,"downthrown_side_dir":null,"downthrown_side_id":null,"epistemic_quality":null,"exposure_quality":null,"fs_name":null,"last_movement":null,"lower_seis_depth":"(13.0,,)","name":null,"net_slip_rate":"(1.0,0.0001,2.0659)","notes":null,"reference":null,"shortening_rate":null,"slip_type":"Sinistral-Normal","strike_slip_rate":null,"upper_seis_depth":"(0.0,,)","vert_sep_rate":null},"geometry":{"type":"MultiLineString","coordinates":[[[26.979376,38.749623,0.0],[27.045446,38.835619,0.0],[27.111533,38.921638,0.0],[27.177641,39.007684,0.0],[27.24377,39.093757,0.0]]]}},
{"type":"Feature","properties":{"fid":34,"accuracy":null,"activity_confidence":null,"average_dip":"(75.0,75,75)","average_rake":"(-32,-32,-32)","catalog_id":"EUR_TRCS318","catalog_name":"SHARE","dip_dir":null,"downthrown_side_dir":null,"downthrown_side_id":null,"epistemic_quality":null,"exposure_quality":null,"fs_name":null,"last_movement":null,"lower_seis_depth":"(8.0,,)","name":null,"net_slip_rate":"(1.0,0.0001,2.0659)","notes":null,"reference":null,"shortening_rate":null,"slip_type":"Sinistral-Normal","strike_slip_rate":null,"upper_seis_depth":"(0.0,,)","vert_sep_rate":null},"geometry":{"type":"MultiLineString","coordinates":[[[27.24492,39.11508,0.0],[27.333537,39.175743,0.0],[27.42219,39.23643,0.0]]]}},
{"type":"Feature","properties":{"fid":35,"accuracy":null,"activity_confidence":null,"average_dip":"(80.0,80,80)","average_rake":"(-32,-32,-32)","catalog_id":"EUR_TRCS319","catalog_name":"SHARE","dip_dir":null,"downthrown_side_dir":null,"downthrown_side_id":null,"epistemic_quality":null,"exposure_quality":null,"fs_name":null,"last_movement":null,"lower_seis_depth":"(10.0,,)","name":null,"net_slip_rate":"(1.0,0.0001,2.0634)","notes":null,"reference":null,"shortening_rate":null,"slip_type":"Sinistral-Normal","strike_slip_rate":null,"upper_seis_depth":"(0.0,,)","vert_sep_rate":null},"geometry":{"type":"MultiLineString","coordinates":[[[27.120467,39.055238,0.0],[27.076998,38.982535,0.0],[27.049442484215728,38.93644767070117,0.0]],[[27.007857178091051,38.86689531857283,0.0],[27.006903282317349,38.865299909067168,0.0]],[[27.001968106389548,38.857045729937326,0.0],[26.990085,38.837171,0.0],[26.983569762704025,38.826274230005751,0.0]],[[26.971367759586084,38.805866313086518,0.0],[26.94664,38.764509,0.0]]]}},
{"type":"Feature","properties":{"fid":36,"accuracy":null,"activity_confidence":null,"average_dip":"(50.0,50.0,50.0)","average_rake":"(-90,-90.0,-90.0)","catalog_id":"ME_TRCS365","catalog_name":"EMME","dip_dir":null,"downthrown_side_dir":null,"downthrown_side_id":null,"epistemic_quality":"1","exposure_quality":null,"fs_name":null,"last_movement":null,"lower_seis_depth":"(12.0,,)","name":null,"net_slip_rate":"(1.3,0.0001,2.6108)","notes":null,"reference":null,"shortening_rate":null,"slip_type":"Normal","strike_slip_rate":null,"upper_seis_depth":"(1.0,,)","vert_sep_rate":null},"geometry":{"type":"MultiLineString","coordinates":[[[27.04366,38.5086,0.0],[27.086879683792485,38.48824696149353,0.0]],[[27.0868796837925,38.488246961493523,0.0],[27.090033,38.486762,0.0],[27.136395420207478,38.464928511418726,0.0]],[[27.136434827668577,38.464922781550406,0.0],[27.143160648365658,38.464648034179127,0.0]],[[27.145761939784091,38.464541772354536,0.0],[27.148179501538124,38.464443015821061,0.0]],[[27.161394072435236,38.463903205323561,0.0],[27.189698,38.462747,0.0],[27.24299,38.46057,0.0]]]}},
{"type":"Feature","properties":{"fid":37,"accuracy":null,"activity_confidence":null,"average_dip":"(50.0,50,50)","average_rake":"(-90,-90,-90)","catalog_id":"EUR_TRCS365","catalog_name":"SHARE","dip_dir":null,"downthrown_side_dir":null,"downthrown_side_id":null,"epistemic_quality":null,"exposure_quality":null,"fs_name":null,"last_movement":null,"lower_seis_depth":"(12.0,,)","name":null,"net_slip_rate":"(1.3,0.0001,2.6108)","notes":null,"reference":null,"shortening_rate":null,"slip_type":"Normal","strike_slip_rate":null,"upper_seis_depth":"(0.0,,)","vert_sep_rate":null},"geometry":{"type":"MultiLineString","coordinates":[[[27.24299,38.46057,0.0],[27.161394075354323,38.463903195627033,0.0]],[[27.148179497477848,38.464443011474238,0.0],[27.145761980017031,38.464541767124885,0.0]],[[27.143160649726134,38.464648031534388,0.0],[27.136434827762336,38.464922781535144,0.0]],[[27.136395420108109,38.464928511416879,0.0],[27.086879472162281,38.488246841704033,0.0]],[[27.086879472162266,38.48824684170404,0.0],[27.04366,38.5086,0.0]]]}},
{"type":"Feature","properties":{"fid":38,"accuracy":null,"activity_confidence":null,"average_dip":"(80.0,80.0,80.0)","average_rake":"(180,180.0,180.0)","catalog_id":"ME_TRCS362","catalog_name":"EMME","dip_dir":null,"downthrown_side_dir":null,"downthrown_side_id":null,"epistemic_quality":"1","exposure_quality":null,"fs_name":null,"last_movement":null,"lower_seis_depth":"(13.0,,)","name":null,"net_slip_rate":"(0.5,0.0001,1.0)","notes":null,"reference":null,"shortening_rate":null,"slip_type":"Dextral","strike_slip_rate":null,"upper_seis_depth":"(1.0,,)","vert_sep_rate":null},"geometry":{"type":"MultiLineString","coordinates":[[[27.061918,38.772765,0.0],[27.109436,38.769417,0.0],[27.139597766162343,38.76729187703372,0.0]]]}},
{"type":"Feature","properties":{"fid":39,"accuracy":null,"activity_confidence":null,"average_dip":"(80.0,80.0,80.0)","average_rake":"(0,0.0,0.0)","catalog_id":"ME_TRCS363","catalog_name":"EMME","dip_dir":null,"downthrown_side_dir":null,"downthrown_side_id":null,"epistemic_quality":"1","exposure_quality":null,"fs_name":null,"last_movement":null,"lower_seis_depth":"(13.0,,)","name":null,"net_slip_rate":"(1.0,0.0001,2.0)","notes":null,"reference":null,"shortening_rate":null,"slip_type":"Sinistral","strike_slip_rate":null,"upper_seis_depth":"(1.0,,)","vert_sep_rate":null},"geometry":{"type":"MultiLineString","coordinates":[[[26.901835450786333,38.820812675381383,0.0],[26.904556412063087,38.807100413452673,0.0]],[[26.912975256083683,38.764671483218763,0.0],[26.917836,38.740173,0.0],[26.916746594980694,38.725742197937535,0.0]],[[26.916746594977752,38.725742197898583,0.0],[26.914623,38.697612,0.0],[26.91141,38.65505,0.0]]]}},
{"type":"Feature","properties":{"fid":40,"accuracy":null,"activity_confidence":null,"average_dip":"(80.0,80,80)","average_rake":"(180,180,180)","catalog_id":"EUR_TRCS362","catalog_name":"SHARE","dip_dir":null,"downthrown_side_dir":null,"downthrown_side_id":null,"epistemic_quality":null,"exposure_quality":null,"fs_name":null,"last_movement":null,"lower_seis_depth":"(13.0,,)","name":null,"net_slip_rate":"(0.5,0.0001,1.0)","notes":null,"reference":null,"shortening_rate":null,"slip_type":"Dextral","strike_slip_rate":null,"upper_seis_depth":"(0.0,,)","vert_sep_rate":null},"geometry":{"type":"MultiLineString","coordinates":[[[27.139597766162343,38.767291877033728,0.0],[27.0144,38.776113,0.0]]]}},
{"type":"Feature","properties":{"fid":41,"accuracy":null,"activity_confidence":null,"average_dip":"(80.0,80,80)","average_rake":"(0,0,0)","catalog_id":"EUR_TRCS363","catalog_name":"SHARE","dip_dir":null,"downthrown_side_dir":null,"downthrown_side_id":null,"epistemic_quality":null,"exposure_quality":null,"fs_name":null,"last_movement":null,"lower_seis_depth":"(13.0,,)","name":null,"net_slip_rate":"(1.0,0.0001,2.0)","notes":null,"reference":null,"shortening_rate":null,"slip_type":"Sinistral","strike_slip_rate":null,"upper_seis_depth":"(0.0,,)","vert_sep_rate":null},"geometry":{"type":"MultiLineString","coordinates":[[[26.91141,38.65505,0.0],[26.916746607553243,38.725742194950946,0.0]],[[26.916746607556185,38.725742194989898,0.0],[26.917836,38.740173,0.0],[26.912974806706135,38.764672345745808,0.0]],[[26.904556120483349,38.807100673942031,0.0],[26.901835367559855,38.820812670674535,0.0]]]}},
{"type":"Feature","properties":{"fid":42,"accuracy":null,"activity_confidence":null,"average_dip":"(80.0,80,80)","average_rake":"(180,180,180)","catalog_id":"EUR_TRCS370","catalog_name":"SHARE","dip_dir":null,"downthrown_side_dir":null,"downthrown_side_id":null,"epistemic_quality":null,"exposure_quality":null,"fs_name":null,"last_movement":null,"lower_seis_depth":"(13.0,,)","name":null,"net_slip_rate":"(0.5,0.0001,1.0)","notes":null,"reference":null,"shortening_rate":null,"slip_type":"Dextral","strike_slip_rate":null,"upper_seis_depth":"(0.0,,)","vert_sep_rate":null},"geometry":{"type":"MultiLineString","coordinates":[[[27.156624,38.677188,0.0],[27.019294,38.755168,0.0]]]}},
{"type":"Feature","properties":{"fid":43,"accuracy":null,"activity_confidence":null,"average_dip":"(80.0,80,80)","average_rake":"(180,180,180)","catalog_id":"EUR_TRCS371","catalog_name":"SHARE","dip_dir":null,"downthrown_side_dir":null,"downthrown_side_id":null,"epistemic_quality":null,"exposure_quality":null,"fs_name":null,"last_movement":null,"lower_seis_depth":"(13.0,,)","name":null,"net_slip_rate":"(0.5,0.0001,1.0)","notes":null,"reference":null,"shortening_rate":null,"slip_type":"Dextral","strike_slip_rate":null,"upper_seis_depth":"(0.0,,)","vert_sep_rate":null},"geometry":{"type":"MultiLineString","coordinates":[[[27.06042,38.70517,0.0],[27.15961,38.65134,0.0]]]}},
{"type":"Feature","properties":{"fid":44,"accuracy":null,"activity_confidence":null,"average_dip":"(67.5,50.0,85.0)","average_rake":"(-123,-127.0,-119.0)","catalog_id":"ME_TRCS369","catalog_name":"EMME","dip_dir":null,"downthrown_side_dir":null,"downthrown_side_id":null,"epistemic_quality":"1","exposure_quality":null,"fs_name":null,"last_movement":null,"lower_seis_depth":"(13.0,,)","name":null,"net_slip_rate":"(0.8,0.0001,1.5792)","notes":null,"reference":null,"shortening_rate":null,"slip_type":"Dextral-Normal","strike_slip_rate":null,"upper_seis_depth":"(1.0,,)","vert_sep_rate":null},"geometry":{"type":"MultiLineString","coordinates":[[[27.236155,38.511385,0.0],[27.278557,38.490653,0.0],[27.32096,38.469922,0.0],[27.363346,38.4492,0.0],[27.405731,38.428477,0.0],[27.454298,38.420307,0.0],[27.502865,38.412137,0.0]]]}},
{"type":"Feature","properties":{"fid":45,"accuracy":null,"activity_confidence":null,"average_dip":"(85.0,85,85)","average_rake":"(180,180,180)","catalog_id":"EUR_TRCS326","catalog_name":"SHARE","dip_dir":null,"downthrown_side_dir":null,"downthrown_side_id":null,"epistemic_quality":null,"exposure_quality":null,"fs_name":null,"last_movement":null,"lower_seis_depth":"(12.0,,)","name":null,"net_slip_rate":"(0.5,0.0001,1.0)","notes":null,"reference":null,"shortening_rate":null,"slip_type":"Dextral","strike_slip_rate":null,"upper_seis_depth":"(0.0,,)","vert_sep_rate":null},"geometry":{"type":"MultiLineString","coordinates":[[[27.249001,38.52026,0.0],[27.268196718757586,38.559428675143131,0.0]]]}},
{"type":"Feature","properties":{"fid":46,"accuracy":null,"activity_confidence":null,"average_dip":"(67.5,50,85)","average_rake":"(-123,-127,-119)","catalog_id":"EUR_TRCS369","catalog_name":"SHARE","dip_dir":null,"downthrown_side_dir":null,"downthrown_side_id":null,"epistemic_quality":null,"exposure_quality":null,"fs_name":null,"last_movement":null,"lower_seis_depth":"(13.0,,)","name":null,"net_slip_rate":"(0.8,0.0001,1.5792)","notes":null,"reference":null,"shortening_rate":null,"slip_type":"Dextral-Normal","strike_slip_rate":null,"upper_seis_depth":"(0.0,,)","vert_sep_rate":null},"geometry":{"type":"MultiLineString","coordinates":[[[27.502865,38.412137,0.0],[27.405731,38.428477,0.0],[27.32096,38.469922,0.0],[27.236155,38.511385,0.0]]]}},
{"type":"Feature","properties":{"fid":47,"accuracy":null,"activity_confidence":null,"average_dip":"(70.0,70.0,70.0)","average_rake":"(-28,-28.0,-28.0)","catalog_id":"ME_TRCS332","catalog_name":"EMME","dip_dir":null,"downthrown_side_dir":null,"downthrown_side_id":null,"epistemic_quality":"1","exposure_quality":null,"fs_name":null,"last_movement":null,"lower_seis_depth":"(13.0,,)","name":null,"net_slip_rate":"None","notes":null,"reference":null,"shortening_rate":null,"slip_type":"Sinistral-Normal","strike_slip_rate":null,"upper_seis_depth":"(1.0,,)","vert_sep_rate":null},"geometry":{"type":"MultiLineString","coordinates":[[[27.379896999012932,37.828911584325411,0.0],[27.412054,37.833999,0.0],[27.435904762273228,37.837771690441286,0.0]]]}},
{"type":"Feature","properties":{"fid":48,"accuracy":null,"activity_confidence":null,"average_dip":"(70.0,70,70)","average_rake":"(-28,-28,-28)","catalog_id":"EUR_TRCS332","catalog_name":"SHARE","dip_dir":null,"downthrown_side_dir":null,"downthrown_side_id":null,"epistemic_quality":null,"exposure_quality":null,"fs_name":null,"last_movement":null,"lower_seis_depth":"(13.0,,)","name":null,"net_slip_rate":"None","notes":null,"reference":null,"shortening_rate":null,"slip_type":"Sinistral-Normal","strike_slip_rate":null,"upper_seis_depth":"(0.0,,)","vert_sep_rate":null},"geometry":{"type":"MultiLineString","coordinates":[[[27.435905804038811,37.837771890683257,0.0],[27.379897011370886,37.82891148436935,0.0]]]}},
{"type":"Feature","properties":{"fid":49,"accuracy":null,"activity_confidence":null,"average_dip":"(85.0,85,85)","average_rake":"(180,180,180)","catalog_id":"EUR_TRCS327","catalog_name":"SHARE","dip_dir":null,"downthrown_side_dir":null,"downthrown_side_id":null,"epistemic_quality":null,"exposure_quality":null,"fs_name":null,"last_movement":null,"lower_seis_depth":"(12.0,,)","name":null,"net_slip_rate":"(0.5,0.0001,1.0)","notes":null,"reference":null,"shortening_rate":null,"slip_type":"Dextral","strike_slip_rate":null,"upper_seis_depth":"(0.0,,)","vert_sep_rate":null},"geometry":{"type":"MultiLineString","coordinates":[[[27.33624,38.504955,0.0],[27.344089574545514,38.536785594524815,0.0]]]}},
{"type":"Feature","properties":{"fid":50,"accuracy":null,"activity_confidence":null,"average_dip":"(85.0,85,85)","average_rake":"(180,180,180)","catalog_id":"EUR_TRCS328","catalog_name":"SHARE","dip_dir":null,"downthrown_side_dir":null,"downthrown_side_id":null,"epistemic_quality":null,"exposure_quality":null,"fs_name":null,"last_movement":null,"lower_seis_depth":"(12.0,,)","name":null,"net_slip_rate":"(0.5,0.0001,1.0)","notes":null,"reference":null,"shortening_rate":null,"slip_type":"Dextral","strike_slip_rate":null,"upper_seis_depth":"(0.0,,)","vert_sep_rate":null},"geometry":{"type":"MultiLineString","coordinates":[[[27.285517,38.537215,0.0],[27.30109625774999,38.548149900783699,0.0]]]}}
]
}
